{
  "type": "FeatureCollection",
  "features": [
    {
      "type": "Feature",
      "properties": {
        "norad_id": 34121,
        "name": "COSMOS 2251 DEB",
        "group": "cosmos-2251-debris",
        "lat": -49.04692706983831,
        "lon": -65.43371811780011,
        "alt_km": 861.100848234767,
        "timestamp": "2025-12-13T20:38:51.401545+00:00",
        "meta_object_name": "COSMOS 2251 DEB",
        "meta_object_id": "1993-036KS",
        "meta_epoch": "2025-12-13T07:44:20.151744",
        "meta_mean_motion": 13.91933519,
        "meta_eccentricity": 0.02403117,
        "meta_inclination": 73.9924,
        "meta_ra_of_asc_node": 96.1715,
        "meta_arg_of_pericenter": 301.4939,
        "meta_mean_anomaly": 118.6007,
        "meta_ephemeris_type": 0,
        "meta_classification_type": "U",
        "meta_norad_cat_id": 34121,
        "meta_element_set_no": 999,
        "meta_rev_at_epoch": 85133,
        "meta_bstar": 0.0017748106,
        "meta_mean_motion_dot": 2.84e-05,
        "meta_mean_motion_ddot": 0,
        "tle_line1": "1 34121U 93036KS  25347.32245546  .00002840  00000+0  17748-2 0  9996",
        "tle_line2": "2 34121  73.9924  96.1715 0240311 301.4939 118.6007 13.91933519851333"
      },
      "geometry": {
        "type": "Point",
        "coordinates": [
          -65.43371811780011,
          -49.04692706983831
        ]
      }
    },
    {
      "type": "Feature",
      "properties": {
        "norad_id": 34122,
        "name": "COSMOS 2251 DEB",
        "group": "cosmos-2251-debris",
        "lat": 56.2423442953794,
        "lon": 141.83803192919154,
        "alt_km": 630.1651244467776,
        "timestamp": "2025-12-13T20:38:51.401555+00:00",
        "meta_object_name": "COSMOS 2251 DEB",
        "meta_object_id": "1993-036KT",
        "meta_epoch": "2025-12-13T03:10:08.925600",
        "meta_mean_motion": 14.65059729,
        "meta_eccentricity": 0.00843328,
        "meta_inclination": 74.0357,
        "meta_ra_of_asc_node": 117.8791,
        "meta_arg_of_pericenter": 14.632,
        "meta_mean_anomaly": 165.0964,
        "meta_ephemeris_type": 0,
        "meta_classification_type": "U",
        "meta_norad_cat_id": 34122,
        "meta_element_set_no": 999,
        "meta_rev_at_epoch": 88690,
        "meta_bstar": 0.0017698321,
        "meta_mean_motion_dot": 9.989e-05,
        "meta_mean_motion_ddot": 0,
        "tle_line1": "1 34122U 93036KT  25347.13204775  .00009989  00000+0  17698-2 0  9990",
        "tle_line2": "2 34122  74.0357 117.8791 0084332  14.6320 165.0964 14.65059729886900"
      },
      "geometry": {
        "type": "Point",
        "coordinates": [
          141.83803192919154,
          56.2423442953794
        ]
      }
    },
    {
      "type": "Feature",
      "properties": {
        "norad_id": 34127,
        "name": "COSMOS 2251 DEB",
        "group": "cosmos-2251-debris",
        "lat": -13.601522160897062,
        "lon": -134.22720099856053,
        "alt_km": 734.7220497683775,
        "timestamp": "2025-12-13T20:38:51.401565+00:00",
        "meta_object_name": "COSMOS 2251 DEB",
        "meta_object_id": "1993-036KY",
        "meta_epoch": "2025-12-13T04:54:27.791712",
        "meta_mean_motion": 14.31553312,
        "meta_eccentricity": 0.01149401,
        "meta_inclination": 74.1797,
        "meta_ra_of_asc_node": 43.0237,
        "meta_arg_of_pericenter": 243.0514,
        "meta_mean_anomaly": 173.4328,
        "meta_ephemeris_type": 0,
        "meta_classification_type": "U",
        "meta_norad_cat_id": 34127,
        "meta_element_set_no": 999,
        "meta_rev_at_epoch": 86778,
        "meta_bstar": 0.0026180349,
        "meta_mean_motion_dot": 7.47e-05,
        "meta_mean_motion_ddot": 0,
        "tle_line1": "1 34127U 93036KY  25347.20448833  .00007470  00000+0  26180-2 0  9997",
        "tle_line2": "2 34127  74.1797  43.0237 0114940 243.0514 173.4328 14.31553312867783"
      },
      "geometry": {
        "type": "Point",
        "coordinates": [
          -134.22720099856053,
          -13.601522160897062
        ]
      }
    },
    {
      "type": "Feature",
      "properties": {
        "norad_id": 34128,
        "name": "COSMOS 2251 DEB",
        "group": "cosmos-2251-debris",
        "lat": -36.9536211051677,
        "lon": -78.03035260156457,
        "alt_km": 567.4784839275117,
        "timestamp": "2025-12-13T20:38:51.401575+00:00",
        "meta_object_name": "COSMOS 2251 DEB",
        "meta_object_id": "1993-036KZ",
        "meta_epoch": "2025-12-13T06:58:22.662912",
        "meta_mean_motion": 15.01199276,
        "meta_eccentricity": 0.00259593,
        "meta_inclination": 73.999,
        "meta_ra_of_asc_node": 295.5989,
        "meta_arg_of_pericenter": 47.7103,
        "meta_mean_anomaly": 75.9767,
        "meta_ephemeris_type": 0,
        "meta_classification_type": "U",
        "meta_norad_cat_id": 34128,
        "meta_element_set_no": 999,
        "meta_rev_at_epoch": 89175,
        "meta_bstar": 0.0031904064,
        "meta_mean_motion_dot": 0.00041446,
        "meta_mean_motion_ddot": 0,
        "tle_line1": "1 34128U 93036KZ  25347.29054008  .00041446  00000+0  31904-2 0  9995",
        "tle_line2": "2 34128  73.9990 295.5989 0025959  47.7103  75.9767 15.01199276891758"
      },
      "geometry": {
        "type": "Point",
        "coordinates": [
          -78.03035260156457,
          -36.9536211051677
        ]
      }
    },
    {
      "type": "Feature",
      "properties": {
        "norad_id": 34129,
        "name": "COSMOS 2251 DEB",
        "group": "cosmos-2251-debris",
        "lat": 41.13802738429302,
        "lon": 142.8531485992666,
        "alt_km": 634.2910141409357,
        "timestamp": "2025-12-13T20:38:51.401585+00:00",
        "meta_object_name": "COSMOS 2251 DEB",
        "meta_object_id": "1993-036LA",
        "meta_epoch": "2025-12-13T05:23:26.615040",
        "meta_mean_motion": 14.75754516,
        "meta_eccentricity": 0.003293,
        "meta_inclination": 74.0355,
        "meta_ra_of_asc_node": 338.5776,
        "meta_arg_of_pericenter": 59.9083,
        "meta_mean_anomaly": 300.5348,
        "meta_ephemeris_type": 0,
        "meta_classification_type": "U",
        "meta_norad_cat_id": 34129,
        "meta_element_set_no": 999,
        "meta_rev_at_epoch": 61305,
        "meta_bstar": 0.0023290447,
        "meta_mean_motion_dot": 0.00016093,
        "meta_mean_motion_ddot": 0,
        "tle_line1": "1 34129U 93036LA  25347.22461360  .00016093  00000+0  23290-2 0  9991",
        "tle_line2": "2 34129  74.0355 338.5776 0032930  59.9083 300.5348 14.75754516613058"
      },
      "geometry": {
        "type": "Point",
        "coordinates": [
          142.8531485992666,
          41.13802738429302
        ]
      }
    },
    {
      "type": "Feature",
      "properties": {
        "norad_id": 34136,
        "name": "COSMOS 2251 DEB",
        "group": "cosmos-2251-debris",
        "lat": -48.51001725842855,
        "lon": 21.518628291054704,
        "alt_km": 685.0037734332946,
        "timestamp": "2025-12-13T20:38:51.401596+00:00",
        "meta_object_name": "COSMOS 2251 DEB",
        "meta_object_id": "1993-036LH",
        "meta_epoch": "2025-12-13T06:36:34.788096",
        "meta_mean_motion": 14.80090295,
        "meta_eccentricity": 0.0085682,
        "meta_inclination": 74.0211,
        "meta_ra_of_asc_node": 41.5759,
        "meta_arg_of_pericenter": 164.4278,
        "meta_mean_anomaly": 268.5894,
        "meta_ephemeris_type": 0,
        "meta_classification_type": "U",
        "meta_norad_cat_id": 34136,
        "meta_element_set_no": 999,
        "meta_rev_at_epoch": 90018,
        "meta_bstar": 0.00072156655,
        "meta_mean_motion_dot": 5.792e-05,
        "meta_mean_motion_ddot": 0,
        "tle_line1": "1 34136U 93036LH  25347.27540264  .00005792  00000+0  72157-3 0  9996",
        "tle_line2": "2 34136  74.0211  41.5759 0085682 164.4278 268.5894 14.80090295900184"
      },
      "geometry": {
        "type": "Point",
        "coordinates": [
          21.518628291054704,
          -48.51001725842855
        ]
      }
    },
    {
      "type": "Feature",
      "properties": {
        "norad_id": 34139,
        "name": "COSMOS 2251 DEB",
        "group": "cosmos-2251-debris",
        "lat": -52.295112679011275,
        "lon": -129.81506765369878,
        "alt_km": 674.0712502318302,
        "timestamp": "2025-12-13T20:38:51.401606+00:00",
        "meta_object_name": "COSMOS 2251 DEB",
        "meta_object_id": "1993-036LL",
        "meta_epoch": "2025-12-13T05:01:24.161952",
        "meta_mean_motion": 14.59078314,
        "meta_eccentricity": 0.00425415,
        "meta_inclination": 74.0303,
        "meta_ra_of_asc_node": 253.1683,
        "meta_arg_of_pericenter": 323.9942,
        "meta_mean_anomaly": 162.6851,
        "meta_ephemeris_type": 0,
        "meta_classification_type": "U",
        "meta_norad_cat_id": 34139,
        "meta_element_set_no": 999,
        "meta_rev_at_epoch": 88156,
        "meta_bstar": 0.0021619651,
        "meta_mean_motion_dot": 0.00010282,
        "meta_mean_motion_ddot": 0,
        "tle_line1": "1 34139U 93036LL  25347.20930743  .00010282  00000+0  21620-2 0  9995",
        "tle_line2": "2 34139  74.0303 253.1683 0042541 323.9942 162.6851 14.59078314881564"
      },
      "geometry": {
        "type": "Point",
        "coordinates": [
          -129.81506765369878,
          -52.295112679011275
        ]
      }
    }
  ]
}